NORAD_CAT_ID,OBJECT_NAME,OBJECT_TYPE,EPOCH,MEAN_MOTION,ECCENTRICITY,INCLINATION,RA_OF_ASC_NODE,ARG_OF_PERICENTER,MEAN_ANOMALY,BSTAR,MEAN_MOTION_DOT,MEAN_MOTION_DDOT,TLE_LINE0,TLE_LINE1,TLE_LINE2,SEMIMAJOR_AXIS,PERIOD,APOGEE,PERIGEE,DECAYED
49157.0,STARLINK-3051,PAYLOAD,2022-09-19 10:02:38,14.98342185,0.0005252,70.0011,229.6765,247.2614,112.799,0.00041914,4.914e-05,0.0,0 STARLINK-3051,1 49157U 21082AD  22262.41850063  .00004914  00000-0  41914-3 0  9990,2 49157  70.0011 229.6765 0005252 247.2614 112.7990 14.98342185 57741,6950.155,96.106,575.67,568.37,0.0
49157.0,STARLINK-3051,PAYLOAD,2022-09-19 14:51:03,14.9832766,0.0005162999999999,70.0022,229.171,245.4823,114.5798,-2.0307e-05,-3.36e-06,0.0,0 STARLINK-3051,1 49157U 21082AD  22262.61878562 -.00000336  00000-0 -20307-4 0  9996,2 49157  70.0022 229.1710 0005163 245.4823 114.5798 14.98327660 57771,6950.2,96.107,575.654,568.477,0.0
49157.0,STARLINK-3051,PAYLOAD,2022-09-19 21:15:35,14.98328151,0.0005147999999999,70.0011,228.4984,245.4787,114.5835,3.5824e-05,3.34e-06,0.0,0 STARLINK-3051,1 49157U 21082AD  22262.88582650  .00000334  00000-0  35824-4 0  9991,2 49157  70.0011 228.4984 0005148 245.4787 114.5835 14.98328151 57819,6950.199000000001,96.107,575.6419999999998,568.486,0.0
49157.0,STARLINK-3051,PAYLOAD,2022-09-20 10:04:39,14.98330812,0.0005084,70.0011,227.152,245.34,114.723,0.00014358,1.621e-05,0.0,0 STARLINK-3051,1 49157U 21082AD  22263.41990717  .00001621  00000-0  14358-3 0  9996,2 49157  70.0011 227.1520 0005084 245.3400 114.7230 14.98330812 57897,6950.19,96.107,575.589,568.5219999999998,0.0
49157.0,STARLINK-3051,PAYLOAD,2022-09-21 02:06:00,14.98335994,0.0005036,70.001,225.4689,245.0176,115.046,0.00036907,4.315e-05,0.0,0 STARLINK-3051,1 49157U 21082AD  22264.08750706  .00004315  00000-0  36907-3 0  9999,2 49157  70.0010 225.4689 0005036 245.0176 115.0460 14.98335994 57993,6950.174,96.107,575.539,568.539,0.0
49157.0,STARLINK-3051,PAYLOAD,2022-09-21 10:06:40,14.98339503,0.0005001,70.001,224.6272,244.4847,115.5796,0.00046934,5.514e-05,0.0,0 STARLINK-3051,1 49157U 21082AD  22264.42130587  .00005514  00000-0  46934-3 0  9999,2 49157  70.0010 224.6272 0005001 244.4847 115.5796 14.98339503 58046,6950.1640000000025,96.106,575.504,568.553,0.0
49157.0,STARLINK-3051,PAYLOAD,2022-09-22 08:32:33,14.98331564,0.0004846999999999,70.0009,222.271,244.7607,115.305,-4.9159e-05,-6.8e-06,0.0,0 STARLINK-3051,1 49157U 21082AD  22265.35594281 -.00000680  00000-0 -49159-4 0  9991,2 49157  70.0009 222.2710 0004847 244.7607 115.3050 14.98331564 58184,6950.188,96.107,575.422,568.684,0.0
49157.0,STARLINK-3051,PAYLOAD,2022-09-22 21:21:38,14.98334261,0.0004919,70.001,220.9244,242.9988,117.0669,0.00015265,1.729e-05,0.0,0 STARLINK-3051,1 49157U 21082AD  22265.89002518  .00001729  00000-0  15265-3 0  9990,2 49157  70.0010 220.9244 0004919 242.9988 117.0669 14.98334261 58266,6950.18,96.107,575.464,568.626,0.0
49157.0,STARLINK-3051,PAYLOAD,2022-09-23 08:34:34,14.9833759,0.0004738,70.0015,219.7461,242.2669,117.801,0.00033104,3.86e-05,0.0,0 STARLINK-3051,1 49157U 21082AD  22266.35734438  .00003860  00000-0  33104-3 0  9995,2 49157  70.0015 219.7461 0004738 242.2669 117.8010 14.98337590 58330,6950.169,96.107,575.327,568.741,0.0
49157.0,STARLINK-3051,PAYLOAD,2022-09-23 21:23:38,14.9834345,0.0004708,70.0016,218.4005,241.5215,118.5471,0.00056755,6.688e-05,0.0,0 STARLINK-3051,1 49157U 21082AD  22266.89142210  .00006688  00000-0  56755-3 0  9993,2 49157  70.0016 218.4005 0004708 241.5215 118.5471 14.98343450 58417,6950.151,96.106,575.288,568.744,0.0
49157.0,STARLINK-3051,PAYLOAD,2022-09-24 08:36:34,14.98351485,0.0004711,70.002,217.2216,240.893,119.1758,0.00073469,8.690000000000001e-05,0.0,0 STARLINK-3051,1 49157U 21082AD  22267.35873741  .00008690  00000-0  73469-3 0  9991,2 49157  70.0020 217.2216 0004711 240.8930 119.1758 14.98351485 58482,6950.126,96.106,575.266,568.717,0.0
49157.0,STARLINK-3051,PAYLOAD,2022-09-25 02:14:03,14.98345069,0.0004586,70.0022,215.3704,239.5875,120.4831,0.00027418,3.181e-05,0.0,0 STARLINK-3051,1 49157U 21082AD  22268.09309310  .00003181  00000-0  27418-3 0  9992,2 49157  70.0022 215.3704 0004586 239.5875 120.4831 14.98345069 58598,6950.146,96.106,575.1990000000002,568.8240000000002,0.0
49157.0,STARLINK-3051,PAYLOAD,2022-09-25 08:38:35,14.98334585,0.0003959,70.0036,214.6971,238.0364,122.0411,1.4233e-05,7.7e-07,0.0,0 STARLINK-3051,1 49157U 21082AD  22268.36013698  .00000077  00000-0  14233-4 0  9996,2 49157  70.0036 214.6971 0003959 238.0364 122.0411 14.98334585 58639,6950.179,96.107,574.795,569.2919999999998,0.0
49157.0,STARLINK-3051,PAYLOAD,2022-09-26 08:40:37,14.98323432,0.0003874,70.0027,212.1723,240.5879,119.4893,-0.00023849,-2.937e-05,0.0,0 STARLINK-3051,1 49157U 21082AD  22269.36153962 -.00002937  00000-0 -23849-3 0  9997,2 49157  70.0027 212.1723 0003874 240.5879 119.4893 14.98323432 58781,6950.2130000000025,96.107,574.771,569.386,0.0
49157.0,STARLINK-3051,PAYLOAD,2022-09-27 03:54:13,14.98329939,0.0004336999999999,70.0025,210.1523,239.1309,120.9424,0.00020547,2.36e-05,0.0,0 STARLINK-3051,1 49157U 21082AD  22270.16266173  .00002360  00000-0  20547-3 0  9996,2 49157  70.0025 210.1523 0004337 239.1309 120.9424 14.98329939 58901,6950.193,96.107,575.072,569.044,0.0
49157.0,STARLINK-3051,PAYLOAD,2022-09-28 05:32:22,14.98334471,0.0003826,70.0029,207.4581,237.4631,122.6159,0.00031838,3.708e-05,0.0,0 STARLINK-3051,1 49157U 21082AD  22271.23082068  .00003708  00000-0  31838-3 0  9996,2 49157  70.0029 207.4581 0003826 237.4631 122.6159 14.98334471 59068,6950.179,96.107,574.703,569.385,0.0
49157.0,STARLINK-3051,PAYLOAD,2022-09-28 13:33:03,14.98335564,0.000416,70.0028,206.6179,235.9048,124.1716,0.00027682,3.212e-05,0.0,0 STARLINK-3051,1 49157U 21082AD  22271.56462018  .00003212  00000-0  27682-3 0  9991,2 49157  70.0028 206.6179 0004160 235.9048 124.1716 14.98335564 59114,6950.176,96.107,574.932,569.149,0.0
49157.0,STARLINK-3051,PAYLOAD,2022-09-28 19:57:35,14.9833352,0.0003907,70.0034,205.9432,231.1624,128.9186,0.00022698,2.617e-05,0.0,0 STARLINK-3051,1 49157U 21082AD  22271.83166212  .00002617  00000-0  22698-3 0  9998,2 49157  70.0034 205.9432 0003907 231.1624 128.9186 14.98333520 59158,6950.182,96.107,574.762,569.332,0.0
49157.0,STARLINK-3051,PAYLOAD,2022-09-29 00:46:00,14.98326669,0.0003926,70.0033,205.4405,234.4198,125.6596,4.3375e-05,4.24e-06,0.0,0 STARLINK-3051,1 49157U 21082AD  22272.03194563  .00000424  00000-0  43375-4 0  9991,2 49157  70.0033 205.4405 0003926 234.4198 125.6596 14.98326669 59183,6950.203,96.107,574.797,569.34,0.0
49157.0,STARLINK-3051,PAYLOAD,2022-09-29 05:34:24,14.98323227,0.0004081,70.0029,204.9352,233.7675,126.3108,-6.723e-05,-8.95e-06,0.0,0 STARLINK-3051,1 49157U 21082AD  22272.23222775 -.00000895  00000-0 -67230-4 0  9990,2 49157  70.0029 204.9352 0004081 233.7675 126.3108 14.98323227 59216,6950.214,96.107,574.915,569.242,0.0
49157.0,STARLINK-3051,PAYLOAD,2022-09-29 19:59:36,14.98333742,0.0004068999999999,70.0023,203.4205,233.12,126.9587,5.7164e-05,5.89e-06,0.0,0 STARLINK-3051,1 49157U 21082AD  22272.83306592  .00000589  00000-0  57164-4 0  9999,2 49157  70.0023 203.4205 0004069 233.1200 126.9587 14.98333742 59305,6950.181,96.107,574.874,569.2180000000002,0.0
49157.0,STARLINK-3051,PAYLOAD,2022-09-30 02:24:09,14.98337177,0.0004001999999999,70.0025,202.7474,232.6972,127.3822,0.00016242,1.846e-05,0.0,0 STARLINK-3051,1 49157U 21082AD  22273.10010449  .00001846  00000-0  16242-3 0  9991,2 49157  70.0025 202.7474 0004002 232.6972 127.3822 14.98337177 59341,6950.170999999999,96.107,574.817,569.254,0.0
49157.0,STARLINK-3051,PAYLOAD,2022-09-30 07:12:33,14.98341496,0.000399,70.0023,202.2422,232.5533,127.5263,0.00027582,3.201e-05,0.0,0 STARLINK-3051,1 49157U 21082AD  22273.30038236  .00003201  00000-0  27582-3 0  9993,2 49157  70.0023 202.2422 0003990 232.5533 127.5263 14.98341496 59377,6950.156999999997,96.106,574.795,569.249,0.0
49157.0,STARLINK-3051,PAYLOAD,2022-10-01 04:02:17,14.98343719,0.0003973,70.0023,200.0541,232.4532,127.6266,0.00044514,5.224e-05,0.0,0 STARLINK-3051,1 49157U 21082AD  22274.16826017  .00005224  00000-0  44514-3 0  9991,2 49157  70.0023 200.0541 0003973 232.4532 127.6266 14.98343719 59503,6950.15,96.106,574.7769999999998,569.254,0.0
49157.0,STARLINK-3051,PAYLOAD,2022-10-01 07:14:33,14.98347363,0.0003973,70.0023,199.7175,232.6359,127.4439,0.00043979,5.161e-05,0.0,0 STARLINK-3051,1 49157U 21082AD  22274.30177760  .00005161  00000-0  43979-3 0  9995,2 49157  70.0023 199.7175 0003973 232.6359 127.4439 14.98347363 59520,6950.139,96.106,574.765,569.243,0.0
49157.0,STARLINK-3051,PAYLOAD,2022-10-01 20:03:37,14.98342125,0.0003958,70.0022,198.371,232.0607,128.0194,0.00010805,1.197e-05,0.0,0 STARLINK-3051,1 49157U 21082AD  22274.83585489  .00001197  00000-0  10805-3 0  9991,2 49157  70.0022 198.3710 0003958 232.0607 128.0194 14.98342125 59607,6950.155,96.106,574.771,569.27,0.0
49157.0,STARLINK-3051,PAYLOAD,2022-10-02 04:04:18,14.98334716,0.0003973999999999,70.0012,197.5299,231.3849,128.6955,5.566e-05,5.71e-06,0.0,0 STARLINK-3051,1 49157U 21082AD  22275.16966083  .00000571  00000-0  55660-4 0  9995,2 49157  70.0012 197.5299 0003974 231.3849 128.6955 14.98334716 59650,6950.178000000001,96.107,574.805,569.281,0.0
49157.0,STARLINK-3051,PAYLOAD,2022-10-02 07:16:35,14.98328774,0.0003993,70.0009,197.1931,233.9976,126.0814,-3.4554e-05,-5.05e-06,0.0,0 STARLINK-3051,1 49157U 21082AD  22275.30318526 -.00000505  00000-0 -34554-4 0  9992,2 49157  70.0009 197.1931 0003993 233.9976 126.0814 14.98328774 59670,6950.196999999999,96.107,574.837,569.286,0.0
49157.0,STARLINK-3051,PAYLOAD,2022-10-02 12:04:59,14.98333158,0.0003926,70.001,196.6879,231.941,128.1395,-3.7522e-05,-5.41e-06,0.0,0 STARLINK-3051,1 49157U 21082AD  22275.50346207 -.00000541  00000-0 -37522-4 0  9999,2 49157  70.0010 196.6879 0003926 231.9410 128.1395 14.98333158 59707,6950.183000000001,96.107,574.7769999999998,569.319,0.0
